{
  "type": "FeatureCollection",
  "features": [
    {
      "type": "Feature",
      "properties": {
        "norad_id": 46805,
        "name": "COSMOS 2547 (705K)",
        "group": "glo-ops",
        "lat": 8.759042259518814,
        "lon": -157.4395298245989,
        "alt_km": 19141.715137874242,
        "timestamp": "2025-12-22T23:36:20.974258+00:00",
        "meta_object_name": "COSMOS 2547 (705K)",
        "meta_object_id": "2020-075A",
        "meta_epoch": "2025-12-22T00:46:38.571168",
        "meta_mean_motion": 2.13100252,
        "meta_eccentricity": 0.000611,
        "meta_inclination": 64.5967,
        "meta_ra_of_asc_node": 198.3861,
        "meta_arg_of_pericenter": 227.6651,
        "meta_mean_anomaly": 132.3515,
        "meta_ephemeris_type": 0,
        "meta_classification_type": "U",
        "meta_norad_cat_id": 46805,
        "meta_element_set_no": 999,
        "meta_rev_at_epoch": 4013,
        "meta_bstar": 0,
        "meta_mean_motion_dot": 9.6e-07,
        "meta_mean_motion_ddot": 0,
        "tle_line1": "1 46805U 20075A   25356.03239087  .00000096  00000+0  00000+0 0  9993",
        "tle_line2": "2 46805  64.5967 198.3861 0006110 227.6651 132.3515  2.13100252 40139"
      },
      "geometry": {
        "type": "Point",
        "coordinates": [
          -157.4395298245989,
          8.759042259518814
        ]
      }
    },
    {
      "type": "Feature",
      "properties": {
        "norad_id": 52984,
        "name": "COSMOS 2557 (706K)",
        "group": "glo-ops",
        "lat": -53.30921349052145,
        "lon": -179.318372371072,
        "alt_km": 19107.792546145163,
        "timestamp": "2025-12-22T23:36:20.974269+00:00",
        "meta_object_name": "COSMOS 2557 (706K)",
        "meta_object_id": "2022-075A",
        "meta_epoch": "2025-12-21T17:28:49.224000",
        "meta_mean_motion": 2.13102032,
        "meta_eccentricity": 0.00135441,
        "meta_inclination": 64.4048,
        "meta_ra_of_asc_node": 320.7357,
        "meta_arg_of_pericenter": 278.4426,
        "meta_mean_anomaly": 81.3985,
        "meta_ephemeris_type": 0,
        "meta_classification_type": "U",
        "meta_norad_cat_id": 52984,
        "meta_element_set_no": 999,
        "meta_rev_at_epoch": 2693,
        "meta_bstar": 0,
        "meta_mean_motion_dot": -4.6e-07,
        "meta_mean_motion_ddot": 0,
        "tle_line1": "1 52984U 22075A   25355.72834750 -.00000046  00000+0  00000+0 0  9999",
        "tle_line2": "2 52984  64.4048 320.7357 0013544 278.4426  81.3985  2.13102032 26931"
      },
      "geometry": {
        "type": "Point",
        "coordinates": [
          -179.318372371072,
          -53.30921349052145
        ]
      }
    },
    {
      "type": "Feature",
      "properties": {
        "norad_id": 54031,
        "name": "COSMOS 2559 (707K)",
        "group": "glo-ops",
        "lat": 19.39902416876049,
        "lon": -29.5128107517607,
        "alt_km": 19156.931673093968,
        "timestamp": "2025-12-22T23:36:20.974281+00:00",
        "meta_object_name": "COSMOS 2559 (707K)",
        "meta_object_id": "2022-130A",
        "meta_epoch": "2025-12-22T00:24:12.527424",
        "meta_mean_motion": 2.13101328,
        "meta_eccentricity": 0.00115649,
        "meta_inclination": 64.377,
        "meta_ra_of_asc_node": 320.8148,
        "meta_arg_of_pericenter": 191.8741,
        "meta_mean_anomaly": 168.0944,
        "meta_ephemeris_type": 0,
        "meta_classification_type": "U",
        "meta_norad_cat_id": 54031,
        "meta_element_set_no": 999,
        "meta_rev_at_epoch": 2491,
        "meta_bstar": 0,
        "meta_mean_motion_dot": -4.4e-07,
        "meta_mean_motion_ddot": 0,
        "tle_line1": "1 54031U 22130A   25356.01681166 -.00000044  00000+0  00000+0 0  9998",
        "tle_line2": "2 54031  64.3770 320.8148 0011564 191.8741 168.0944  2.13101328 24915"
      },
      "geometry": {
        "type": "Point",
        "coordinates": [
          -29.5128107517607,
          19.39902416876049
        ]
      }
    },
    {
      "type": "Feature",
      "properties": {
        "norad_id": 54377,
        "name": "COSMOS 2564 (761)",
        "group": "glo-ops",
        "lat": 34.546215711545344,
        "lon": -0.4183311492496997,
        "alt_km": 19115.88058508996,
        "timestamp": "2025-12-22T23:36:20.974291+00:00",
        "meta_object_name": "COSMOS 2564 (761)",
        "meta_object_id": "2022-161A",
        "meta_epoch": "2025-12-22T07:55:31.529856",
        "meta_mean_motion": 2.13102051,
        "meta_eccentricity": 0.00085466,
        "meta_inclination": 64.7388,
        "meta_ra_of_asc_node": 198.5802,
        "meta_arg_of_pericenter": 203.7353,
        "meta_mean_anomaly": 156.2926,
        "meta_ephemeris_type": 0,
        "meta_classification_type": "U",
        "meta_norad_cat_id": 54377,
        "meta_element_set_no": 999,
        "meta_rev_at_epoch": 2386,
        "meta_bstar": 0,
        "meta_mean_motion_dot": 9.5e-07,
        "meta_mean_motion_ddot": 0,
        "tle_line1": "1 54377U 22161A   25356.33022604  .00000095  00000+0  00000+0 0  9991",
        "tle_line2": "2 54377  64.7388 198.5802 0008546 203.7353 156.2926  2.13102051 23868"
      },
      "geometry": {
        "type": "Point",
        "coordinates": [
          -0.4183311492496997,
          34.546215711545344
        ]
      }
    },
    {
      "type": "Feature",
      "properties": {
        "norad_id": 57517,
        "name": "COSMOS 2569 (703K)",
        "group": "glo-ops",
        "lat": 43.357688717324386,
        "lon": -127.2599368629874,
        "alt_km": 19150.060040080738,
        "timestamp": "2025-12-22T23:36:20.974303+00:00",
        "meta_object_name": "COSMOS 2569 (703K)",
        "meta_object_id": "2023-114A",
        "meta_epoch": "2025-12-22T08:14:44.480832",
        "meta_mean_motion": 2.13104025,
        "meta_eccentricity": 0.00108594,
        "meta_inclination": 65.199,
        "meta_ra_of_asc_node": 78.589,
        "meta_arg_of_pericenter": 287.0596,
        "meta_mean_anomaly": 72.8655,
        "meta_ephemeris_type": 0,
        "meta_classification_type": "U",
        "meta_norad_cat_id": 57517,
        "meta_element_set_no": 999,
        "meta_rev_at_epoch": 1849,
        "meta_bstar": 0,
        "meta_mean_motion_dot": -3e-08,
        "meta_mean_motion_ddot": 0,
        "tle_line1": "1 57517U 23114A   25356.34357038 -.00000003  00000+0  00000+0 0  9992",
        "tle_line2": "2 57517  65.1990  78.5890 0010859 287.0596  72.8655  2.13104025 18497"
      },
      "geometry": {
        "type": "Point",
        "coordinates": [
          -127.2599368629874,
          43.357688717324386
        ]
      }
    },
    {
      "type": "Feature",
      "properties": {
        "norad_id": 63130,
        "name": "COSMOS 2584 (704K)",
        "group": "glo-ops",
        "lat": -33.88272986033575,
        "lon": -82.94325743630627,
        "alt_km": 19114.51438551238,
        "timestamp": "2025-12-22T23:36:20.974314+00:00",
        "meta_object_name": "COSMOS 2584 (704K)",
        "meta_object_id": "2025-042A",
        "meta_epoch": "2025-12-21T07:00:00.966240",
        "meta_mean_motion": 2.13103074,
        "meta_eccentricity": 0.00077364,
        "meta_inclination": 64.9804,
        "meta_ra_of_asc_node": 78.8547,
        "meta_arg_of_pericenter": 219.241,
        "meta_mean_anomaly": 140.7412,
        "meta_ephemeris_type": 0,
        "meta_classification_type": "U",
        "meta_norad_cat_id": 63130,
        "meta_element_set_no": 999,
        "meta_rev_at_epoch": 625,
        "meta_bstar": 0,
        "meta_mean_motion_dot": -1.1e-07,
        "meta_mean_motion_ddot": 0,
        "tle_line1": "1 63130U 25042A   25355.29167785 -.00000011  00000+0  00000+0 0  9992",
        "tle_line2": "2 63130  64.9804  78.8547 0007736 219.2410 140.7412  2.13103074  6250"
      },
      "geometry": {
        "type": "Point",
        "coordinates": [
          -82.94325743630627,
          -33.88272986033575
        ]
      }
    },
    {
      "type": "Feature",
      "properties": {
        "norad_id": 65590,
        "name": "COSMOS 2596 (708K)",
        "group": "glo-ops",
        "lat": -21.212557735219345,
        "lon": -49.45086498258064,
        "alt_km": 19101.72628815047,
        "timestamp": "2025-12-22T23:36:20.974325+00:00",
        "meta_object_name": "COSMOS 2596 (708K)",
        "meta_object_id": "2025-206B",
        "meta_epoch": "2025-12-22T03:59:43.719936",
        "meta_mean_motion": 2.1310041,
        "meta_eccentricity": 0.00140887,
        "meta_inclination": 64.7392,
        "meta_ra_of_asc_node": 321.1476,
        "meta_arg_of_pericenter": 307.2643,
        "meta_mean_anomaly": 122.2256,
        "meta_ephemeris_type": 0,
        "meta_classification_type": "U",
        "meta_norad_cat_id": 65590,
        "meta_element_set_no": 999,
        "meta_rev_at_epoch": 214,
        "meta_bstar": 0,
        "meta_mean_motion_dot": -4.3e-07,
        "meta_mean_motion_ddot": 0,
        "tle_line1": "1 65590U 25206B   25356.16647824 -.00000043  00000+0  00000+0 0  9995",
        "tle_line2": "2 65590  64.7392 321.1476 0014088 307.2643 122.2256  2.13100410  2147"
      },
      "geometry": {
        "type": "Point",
        "coordinates": [
          -49.45086498258064,
          -21.212557735219345
        ]
      }
    }
  ]
}